OPS 7218 (TRANSIT 16)   
1 02807U 67048A   24199.95907543  .00000229  00000+0  34030-3 0  9994
2 02807  89.6721  10.7817 0021114 154.1386 318.1109 13.50531414813544
OPS 4947 (TRANSIT 17)   
1 02965U 67092A   24199.63500567  .00000212  00000+0  29901-3 0  9991
2 02965  89.2292  63.9995 0045955 287.0264 126.0092 13.53249451801572
OPS 7034 (TRANSIT 18)   
1 03133U 68012A   24200.22234705  .00000202  00000+0  29146-3 0  9998
2 03133  90.0217 272.5094 0073306 213.7696 200.5271 13.51371875776472
NNSS 19 (TRANSIT 19)    
1 04507U 70067A   24200.48531939  .00000232  00000+0  31632-3 0  9990
2 04507  89.9673 235.1792 0171357 337.9366  21.4470 13.51082430653436
NNSS 20 (TRANSIT 20)    
1 06909U 73081A   24200.22671751  .00000409  00000+0  40870-3 0  9996
2 06909  89.8355 263.4718 0155986 174.0232 186.2841 13.71064318733656
TRANSAT                 
1 10457U 77106A   24200.45424230  .00000129  00000+0  19021-3 0  9997
2 10457  89.6532  96.8477 0023598 228.7350 305.2760 13.48819942298592
NOVA 1                  
1 12458U 81044A   24200.45604025  .00000118  00000+0  25716-3 0  9994
2 12458  89.8655  98.5187 0016207  76.4205  97.6060 13.23179074 84389
NOVA 3                  
1 15362U 84110A   24199.68824837  .00000114  00000+0  25106-3 0  9994
2 15362  90.1152  74.7727 0030540 306.1127 113.6050 13.22949282919156
OSCAR 30                
1 15935U 85066A   24199.71980957  .00000192  00000+0  32845-3 0  9995
2 15935  90.1789  91.2622 0170042  91.0409 324.2603 13.35927368896031
OSCAR 24                
1 15936U 85066B   24199.72692174  .00000173  00000+0  29286-3 0  9992
2 15936  90.1837  83.2450 0170821  97.1563 326.2632 13.35786644897944
POLAR BEAR              
1 17070U 86088A   24199.93065909  .00000202  00000+0  19956-3 0  9997
2 17070  89.6018 204.4610 0037697 225.3597 197.4955 13.75066207889317
OSCAR 27                
1 18361U 87080A   24200.13538692  .00000166  00000+0  26306-3 0  9999
2 18361  90.3590  60.5081 0102187 252.5838 106.4117 13.44744761806925
OSCAR 29                
1 18362U 87080B   24200.21089559  .00000125  00000+0  19683-3 0  9997
2 18362  90.3604  60.9209 0103842 274.6729 208.0998 13.44307660806492
OSCAR 23                
1 19070U 88033A   24200.52971437  .00000190  00000+0  36481-3 0  9999
2 19070  90.3146   0.5608 0190202 164.3504 266.8881 13.27663370754832
OSCAR 32                
1 19071U 88033B   24200.21613924  .00000194  00000+0  37113-3 0  9997
2 19071  90.3150   0.6593 0188977 152.5649  19.6366 13.27837068755051
NOVA 2                  
1 19223U 88052A   24200.19213142  .00000107  00000+0  23514-3 0  9996
2 19223  89.9814  79.1831 0030434 349.5925 127.1693 13.22848557741981
OSCAR 25                
1 19419U 88074A   24199.92533223  .00000164  00000+0  26796-3 0  9998
2 19419  90.0179  18.8037 0094216 269.3413 208.4100 13.42467384757599
OSCAR 31                
1 19420U 88074B   24199.93856964  .00000116  00000+0  18617-3 0  9991
2 19420  90.0194  19.0746 0092471 263.3211 213.8696 13.42455110757706
